0 FENGYUN 1C DEB
1 31235U 99025BLR 13283.11188827  .00003110  00000-0  24346-2 0  5185
2 31235 098.4863 029.0404 0267098 071.6442 291.3510 13.77314034327522
0 FENGYUN 1C DEB
1 31235U 99025BLR 13284.12890220  .00003089  00000-0  24188-2 0  5194
2 31235 098.4871 029.9515 0267073 068.9522 293.9924 13.77319989327660
0 FENGYUN 1C DEB
1 31235U 99025BLR 13285.50912466  .00003111  00000-0  24417-2 0  5207
2 31235 098.4821 031.1814 0265723 064.9034 297.9689 13.77329513327853
0 FENGYUN 1C DEB
1 31235U 99025BLR 13286.52611777  .00003121  00000-0  24512-2 0  5219
2 31235 098.4806 032.0906 0265199 062.1219 300.6644 13.77336237327999
0 FENGYUN 1C DEB
1 31235U 99025BLR 13288.05160157  .00003120  00000-0  24507-2 0  5224
2 31235 098.4810 033.4549 0265144 058.0662 304.5991 13.77345837328207
0 FENGYUN 1C DEB
1 31235U 99025BLR 13289.06858497  .00003146  00000-0  24765-2 0  5232
2 31235 098.4814 034.3655 0263912 055.8409 306.7782 13.77352709328347
0 FENGYUN 1C DEB
1 31235U 99025BLR 13290.08555323  .00003196  00000-0  25162-2 0  5246
2 31235 098.4808 035.2721 0263730 052.8364 309.6600 13.77360373328481
0 FENGYUN 1C DEB
1 31235U 99025BLR 13290.52139098  .00003613  00000-0  28332-2 0  5259
2 31235 098.4840 035.6655 0260327 052.4051 310.0898 13.77366731315727
0 FENGYUN 1C DEB
1 31235U 99025BLR 13291.10252167  .00003225  00000-0  25385-2 0  5251
2 31235 098.4800 036.1817 0263716 049.9846 312.4157 13.77367625328627
0 FENGYUN 1C DEB
1 31235U 99025BLR 13292.11948414  .00003248  00000-0  25560-2 0  5261
2 31235 098.4795 037.0916 0263666 047.1810 315.1208 13.77374804328764
0 FENGYUN 1C DEB
1 31235U 99025BLR 13293.13644168  .00003284  00000-0  25925-2 0  5279
2 31235 098.4814 038.0024 0261948 044.9082 317.3273 13.77382054328902
0 FENGYUN 1C DEB
1 31235U 99025BLR 13294.51658105  .00003347  00000-0  26402-2 0  5280
2 31235 098.4807 039.2369 0262238 040.9702 321.0950 13.77392674329091
0 FENGYUN 1C DEB
1 31235U 99025BLR 13295.53352153  .00003378  00000-0  26648-2 0  5294
2 31235 098.4803 040.1450 0262125 038.1145 323.8354 13.77400248329235
